CCSDS_OMM_VERS = 2.0
CREATION_DATE  = 
ORIGINATOR     = 

OBJECT_NAME    = COSMOS 1933
OBJECT_ID      = 1988-020A
CENTER_NAME    = EARTH
REF_FRAME      = TEME
TIME_SYSTEM    = UTC
MEAN_ELEMENT_THEORY = SGP/SGP4

EPOCH          = 2025-12-11T00:54:43.155072
MEAN_MOTION    = 15.17085611
ECCENTRICITY   = .00056062
INCLINATION    = 82.5139
RA_OF_ASC_NODE = 338.5603
ARG_OF_PERICENTER = 132.0903
MEAN_ANOMALY   = 228.0808

EPHEMERIS_TYPE = 0
CLASSIFICATION_TYPE = U
NORAD_CAT_ID   = 18958
ELEMENT_SET_NO = 999
REV_AT_EPOCH   = 3678
BSTAR          = .29851028E-3
MEAN_MOTION_DOT = .5943E-4
MEAN_MOTION_DDOT = 0

CCSDS_OMM_VERS = 2.0
CREATION_DATE  = 
ORIGINATOR     = 

OBJECT_NAME    = SL-3 R/B
OBJECT_ID      = 1988-032B
CENTER_NAME    = EARTH
REF_FRAME      = TEME
TIME_SYSTEM    = UTC
MEAN_ELEMENT_THEORY = SGP/SGP4

EPOCH          = 2025-12-11T05:08:41.056512
MEAN_MOTION    = 15.18716876
ECCENTRICITY   = .00265791
INCLINATION    = 97.5085
RA_OF_ASC_NODE = 323.9453
ARG_OF_PERICENTER = 178.1918
MEAN_ANOMALY   = 181.9417

EPHEMERIS_TYPE = 0
CLASSIFICATION_TYPE = U
NORAD_CAT_ID   = 19046
ELEMENT_SET_NO = 999
REV_AT_EPOCH   = 3867
BSTAR          = .38896158E-3
MEAN_MOTION_DOT = .808E-4
MEAN_MOTION_DDOT = 0

CCSDS_OMM_VERS = 2.0
CREATION_DATE  = 
ORIGINATOR     = 

OBJECT_NAME    = SL-16 R/B
OBJECT_ID      = 1988-039B
CENTER_NAME    = EARTH
REF_FRAME      = TEME
TIME_SYSTEM    = UTC
MEAN_ELEMENT_THEORY = SGP/SGP4

EPOCH          = 2025-12-11T04:43:22.187712
MEAN_MOTION    = 14.19596691
ECCENTRICITY   = .00197368
INCLINATION    = 71.0152
RA_OF_ASC_NODE = 255.6607
ARG_OF_PERICENTER = 118.9266
MEAN_ANOMALY   = 241.3842

EPHEMERIS_TYPE = 0
CLASSIFICATION_TYPE = U
NORAD_CAT_ID   = 19120
ELEMENT_SET_NO = 999
REV_AT_EPOCH   = 94582
BSTAR          = .20668876E-4
MEAN_MOTION_DOT = -.4E-7
MEAN_MOTION_DDOT = 0

CCSDS_OMM_VERS = 2.0
CREATION_DATE  = 
ORIGINATOR     = 

OBJECT_NAME    = COSMOS 1953
OBJECT_ID      = 1988-050A
CENTER_NAME    = EARTH
REF_FRAME      = TEME
TIME_SYSTEM    = UTC
MEAN_ELEMENT_THEORY = SGP/SGP4

EPOCH          = 2025-12-11T04:43:50.782656
MEAN_MOTION    = 15.26909057
ECCENTRICITY   = .00138114
INCLINATION    = 82.5090
RA_OF_ASC_NODE = 247.1294
ARG_OF_PERICENTER = 76.2264
MEAN_ANOMALY   = 284.0511

EPHEMERIS_TYPE = 0
CLASSIFICATION_TYPE = U
NORAD_CAT_ID   = 19210
ELEMENT_SET_NO = 999
REV_AT_EPOCH   = 2427
BSTAR          = .33223106E-3
MEAN_MOTION_DOT = .8835E-4
MEAN_MOTION_DDOT = 0

CCSDS_OMM_VERS = 2.0
CREATION_DATE  = 
ORIGINATOR     = 

OBJECT_NAME    = SL-8 R/B
OBJECT_ID      = 1988-053B
CENTER_NAME    = EARTH
REF_FRAME      = TEME
TIME_SYSTEM    = UTC
MEAN_ELEMENT_THEORY = SGP/SGP4

EPOCH          = 2025-12-11T07:11:32.040960
MEAN_MOTION    = 14.38858021
ECCENTRICITY   = .0019024
INCLINATION    = 74.0479
RA_OF_ASC_NODE = 275.3734
ARG_OF_PERICENTER = 120.0655
MEAN_ANOMALY   = 357.8973

EPHEMERIS_TYPE = 0
CLASSIFICATION_TYPE = U
NORAD_CAT_ID   = 19257
ELEMENT_SET_NO = 999
REV_AT_EPOCH   = 96388
BSTAR          = .16221612E-3
MEAN_MOTION_DOT = .474E-5
MEAN_MOTION_DDOT = 0

CCSDS_OMM_VERS = 2.0
CREATION_DATE  = 
ORIGINATOR     = 

OBJECT_NAME    = COSMOS 1975
OBJECT_ID      = 1988-093A
CENTER_NAME    = EARTH
REF_FRAME      = TEME
TIME_SYSTEM    = UTC
MEAN_ELEMENT_THEORY = SGP/SGP4

EPOCH          = 2025-12-11T01:50:10.328352
MEAN_MOTION    = 15.26430064
ECCENTRICITY   = .00127728
INCLINATION    = 82.5202
RA_OF_ASC_NODE = 206.4940
ARG_OF_PERICENTER = 117.5863
MEAN_ANOMALY   = 242.6674

EPHEMERIS_TYPE = 0
CLASSIFICATION_TYPE = U
NORAD_CAT_ID   = 19573
ELEMENT_SET_NO = 999
REV_AT_EPOCH   = 588
BSTAR          = .38995378E-3
MEAN_MOTION_DOT = .10213E-3
MEAN_MOTION_DDOT = 0

CCSDS_OMM_VERS = 2.0
CREATION_DATE  = 
ORIGINATOR     = 

OBJECT_NAME    = SL-14 R/B
OBJECT_ID      = 1988-093B
CENTER_NAME    = EARTH
REF_FRAME      = TEME
TIME_SYSTEM    = UTC
MEAN_ELEMENT_THEORY = SGP/SGP4

EPOCH          = 2025-12-11T04:18:36.873216
MEAN_MOTION    = 14.85546391
ECCENTRICITY   = .00200783
INCLINATION    = 82.5303
RA_OF_ASC_NODE = 125.1312
ARG_OF_PERICENTER = 334.8086
MEAN_ANOMALY   = 198.7613

EPHEMERIS_TYPE = 0
CLASSIFICATION_TYPE = U
NORAD_CAT_ID   = 19574
ELEMENT_SET_NO = 999
REV_AT_EPOCH   = 98789
BSTAR          = .95771134E-4
MEAN_MOTION_DOT = .854E-5
MEAN_MOTION_DDOT = 0

CCSDS_OMM_VERS = 2.0
CREATION_DATE  = 
ORIGINATOR     = 

OBJECT_NAME    = SL-16 R/B
OBJECT_ID      = 1988-102B
CENTER_NAME    = EARTH
REF_FRAME      = TEME
TIME_SYSTEM    = UTC
MEAN_ELEMENT_THEORY = SGP/SGP4

EPOCH          = 2025-12-11T06:10:59.867040
MEAN_MOTION    = 14.16136262
ECCENTRICITY   = .001304
INCLINATION    = 70.9996
RA_OF_ASC_NODE = 337.5618
ARG_OF_PERICENTER = 154.4852
MEAN_ANOMALY   = 205.6918

EPHEMERIS_TYPE = 0
CLASSIFICATION_TYPE = U
NORAD_CAT_ID   = 19650
ELEMENT_SET_NO = 999
REV_AT_EPOCH   = 91437
BSTAR          = -.6169738E-5
MEAN_MOTION_DOT = -.6E-6
MEAN_MOTION_DDOT = 0

CCSDS_OMM_VERS = 2.0
CREATION_DATE  = 
ORIGINATOR     = 

OBJECT_NAME    = INTERCOSMOS 24
OBJECT_ID      = 1989-080A
CENTER_NAME    = EARTH
REF_FRAME      = TEME
TIME_SYSTEM    = UTC
MEAN_ELEMENT_THEORY = SGP/SGP4

EPOCH          = 2025-12-11T05:38:03.713280
MEAN_MOTION    = 12.59435984
ECCENTRICITY   = .11888325
INCLINATION    = 82.6043
RA_OF_ASC_NODE = 161.9313
ARG_OF_PERICENTER = 138.0101
MEAN_ANOMALY   = 231.8613

EPHEMERIS_TYPE = 0
CLASSIFICATION_TYPE = U
NORAD_CAT_ID   = 20261
ELEMENT_SET_NO = 999
REV_AT_EPOCH   = 65566
BSTAR          = .443784E-3
MEAN_MOTION_DOT = .153E-4
MEAN_MOTION_DDOT = 0

CCSDS_OMM_VERS = 2.0
CREATION_DATE  = 
ORIGINATOR     = 

OBJECT_NAME    = SL-14 R/B
OBJECT_ID      = 1989-080C
CENTER_NAME    = EARTH
REF_FRAME      = TEME
TIME_SYSTEM    = UTC
MEAN_ELEMENT_THEORY = SGP/SGP4

EPOCH          = 2025-12-11T03:27:40.296096
MEAN_MOTION    = 12.50411653
ECCENTRICITY   = .12306878
INCLINATION    = 82.5930
RA_OF_ASC_NODE = 230.0449
ARG_OF_PERICENTER = 27.2335
MEAN_ANOMALY   = 338.8144

EPHEMERIS_TYPE = 0
CLASSIFICATION_TYPE = U
NORAD_CAT_ID   = 20262
ELEMENT_SET_NO = 999
REV_AT_EPOCH   = 64908
BSTAR          = .17144398E-3
MEAN_MOTION_DOT = .588E-5
MEAN_MOTION_DDOT = 0

CCSDS_OMM_VERS = 2.0
CREATION_DATE  = 
ORIGINATOR     = 

OBJECT_NAME    = DELTA 1 R/B
OBJECT_ID      = 1989-089B
CENTER_NAME    = EARTH
REF_FRAME      = TEME
TIME_SYSTEM    = UTC
MEAN_ELEMENT_THEORY = SGP/SGP4

EPOCH          = 2025-12-11T04:35:17.981376
MEAN_MOTION    = 14.50570180
ECCENTRICITY   = .00702262
INCLINATION    = 97.0753
RA_OF_ASC_NODE = 201.6742
ARG_OF_PERICENTER = 43.1183
MEAN_ANOMALY   = 317.5486

EPHEMERIS_TYPE = 0
CLASSIFICATION_TYPE = U
NORAD_CAT_ID   = 20323
ELEMENT_SET_NO = 999
REV_AT_EPOCH   = 88290
BSTAR          = .13968256E-3
MEAN_MOTION_DOT = .53E-5
MEAN_MOTION_DDOT = 0

CCSDS_OMM_VERS = 2.0
CREATION_DATE  = 
ORIGINATOR     = 

OBJECT_NAME    = ARIANE 40 R/B
OBJECT_ID      = 1990-005H
CENTER_NAME    = EARTH
REF_FRAME      = TEME
TIME_SYSTEM    = UTC
MEAN_ELEMENT_THEORY = SGP/SGP4

EPOCH          = 2025-12-11T03:22:49.563552
MEAN_MOTION    = 14.39796771
ECCENTRICITY   = .00112023
INCLINATION    = 98.3244
RA_OF_ASC_NODE = 43.3638
ARG_OF_PERICENTER = 110.1437
MEAN_ANOMALY   = 250.0958

EPHEMERIS_TYPE = 0
CLASSIFICATION_TYPE = U
NORAD_CAT_ID   = 20443
ELEMENT_SET_NO = 999
REV_AT_EPOCH   = 88006
BSTAR          = .16903462E-3
MEAN_MOTION_DOT = .488E-5
MEAN_MOTION_DDOT = 0

